start=new Date('2021-09-04T00:00:00.000Z').valueOf();
sats=[{"MEAN_MOTION":"15.06401639","INCLINATION":"53.0542","RCS_SIZE":"LARGE","RA_OF_ASC_NODE":"294.9420","SEMIMAJOR_AXIS":"6925.344","SITE":"AFETR","TIME_SYSTEM":"UTC","TLE_LINE1":"1 46076U 20055BB  21246.65606132  .00000956  00000-0  83052-4 0  9991","PERIOD":"95.592","CLASSIFICATION_TYPE":"U","EPHEMERIS_TYPE":"0","TLE_LINE2":"2 46076  53.0542 294.9420 0000889  87.3215 272.7875 15.06401639 60891","FILE":"3108332","CENTER_NAME":"EARTH","PERIAPSIS":"546.593","MEAN_MOTION_DDOT":"0.0000000000000","MEAN_ELEMENT_THEORY":"SGP4","OBJECT_ID":"2020-055BB","ELEMENT_SET_NO":"999","REF_FRAME":"TEME","ECCENTRICITY":"0.00008890","NORAD_CAT_ID":"46076","MEAN_ANOMALY":"272.7875","BSTAR":"0.00008305200000","OBJECT_NAME":"STARLINK-1552","ARG_OF_PERICENTER":"87.3215","COUNTRY_CODE":"US","OBJECT_TYPE":"PAYLOAD","LAUNCH_DATE":"2020-08-07","REV_AT_EPOCH":"6089","EPOCH":"2021-09-03T15:44:43.698048","MEAN_MOTION_DOT":"0.00000956","DECAY_DATE":null,"GP_ID":"184047063","APOAPSIS":"547.824"},{"LAUNCH_DATE":"2020-08-07","REV_AT_EPOCH":"6086","MEAN_MOTION_DOT":"0.00000524","EPOCH":"2021-09-03T15:18:13.695264","OBJECT_TYPE":"PAYLOAD","COUNTRY_CODE":"US","APOAPSIS":"547.894","GP_ID":"184047814","DECAY_DATE":null,"NORAD_CAT_ID":"46077","ECCENTRICITY":"0.00009480","REF_FRAME":"TEME","MEAN_ANOMALY":"258.2217","OBJECT_ID":"2020-055BC","ELEMENT_SET_NO":"999","ARG_OF_PERICENTER":"101.8878","BSTAR":"0.00005408100000","OBJECT_NAME":"STARLINK-1559","EPHEMERIS_TYPE":"0","PERIOD":"95.593","CLASSIFICATION_TYPE":"U","FILE":"3108332","TLE_LINE2":"2 46077  53.0534 295.0216 0000948 101.8878 258.2217 15.06392294 60863","TLE_LINE1":"1 46077U 20055BC  21246.63765851  .00000524  00000-0  54081-4 0  9995","MEAN_ELEMENT_THEORY":"SGP4","MEAN_MOTION_DDOT":"0.0000000000000","PERIAPSIS":"546.581","CENTER_NAME":"EARTH","RCS_SIZE":"LARGE","MEAN_MOTION":"15.06392294","INCLINATION":"53.0534","SITE":"AFETR","TIME_SYSTEM":"UTC","SEMIMAJOR_AXIS":"6925.372","RA_OF_ASC_NODE":"295.0216"},{"MEAN_MOTION":"15.06401308","INCLINATION":"53.0548","RCS_SIZE":"LARGE","SEMIMAJOR_AXIS":"6925.345","RA_OF_ASC_NODE":"295.1187","SITE":"AFETR","TIME_SYSTEM":"UTC","TLE_LINE1":"1 46078U 20055BD  21246.61552080  .00000837  00000-0  75064-4 0  9993","EPHEMERIS_TYPE":"0","PERIOD":"95.592","CLASSIFICATION_TYPE":"U","FILE":"3108332","TLE_LINE2":"2 46078  53.0548 295.1187 0000967 104.5091 255.6005 15.06401308 60879","MEAN_MOTION_DDOT":"0.0000000000000","CENTER_NAME":"EARTH","PERIAPSIS":"546.540","MEAN_ELEMENT_THEORY":"SGP4","ELEMENT_SET_NO":"999","OBJECT_ID":"2020-055BD","NORAD_CAT_ID":"46078","ECCENTRICITY":"0.00009670","REF_FRAME":"TEME","MEAN_ANOMALY":"255.6005","BSTAR":"0.00007506400000","OBJECT_NAME":"STARLINK-1563","ARG_OF_PERICENTER":"104.5091","OBJECT_TYPE":"PAYLOAD","COUNTRY_CODE":"US","REV_AT_EPOCH":"6087","LAUNCH_DATE":"2020-08-07","MEAN_MOTION_DOT":"0.00000837","EPOCH":"2021-09-03T14:46:20.997120","GP_ID":"184048061","DECAY_DATE":null,"APOAPSIS":"547.879"},{"TIME_SYSTEM":"UTC","SITE":"AFETR","RA_OF_ASC_NODE":"296.0469","SEMIMAJOR_AXIS":"6925.323","RCS_SIZE":"LARGE","INCLINATION":"53.0541","MEAN_MOTION":"15.06408290","MEAN_ELEMENT_THEORY":"SGP4","PERIAPSIS":"546.445","CENTER_NAME":"EARTH","MEAN_MOTION_DDOT":"0.0000000000000","TLE_LINE2":"2 46079  53.0541 296.0469 0001073  98.4831 261.6279 15.06408290 60875","FILE":"3107903","PERIOD":"95.592","CLASSIFICATION_TYPE":"U","EPHEMERIS_TYPE":"0","TLE_LINE1":"1 46079U 20055BE  21246.40911027  .00000977  00000-0  84432-4 0  9995","ARG_OF_PERICENTER":"98.4831","OBJECT_NAME":"STARLINK-1566","BSTAR":"0.00008443200000","MEAN_ANOMALY":"261.6279","REF_FRAME":"TEME","ECCENTRICITY":"0.00010730","NORAD_CAT_ID":"46079","ELEMENT_SET_NO":"999","OBJECT_ID":"2020-055BE","APOAPSIS":"547.931","DECAY_DATE":null,"GP_ID":"184013614","EPOCH":"2021-09-03T09:49:07.127328","MEAN_MOTION_DOT":"0.00000977","REV_AT_EPOCH":"6087","LAUNCH_DATE":"2020-08-07","COUNTRY_CODE":"US","OBJECT_TYPE":"PAYLOAD"},{"TIME_SYSTEM":"UTC","SITE":"AFETR","SEMIMAJOR_AXIS":"6925.382","RA_OF_ASC_NODE":"295.6355","RCS_SIZE":"LARGE","INCLINATION":"53.0553","MEAN_MOTION":"15.06388989","MEAN_ELEMENT_THEORY":"SGP4","MEAN_MOTION_DDOT":"0.0000000000000","CENTER_NAME":"EARTH","PERIAPSIS":"546.605","FILE":"3108332","TLE_LINE2":"2 46080  53.0553 295.6355 0000928  83.5499 276.5596 15.06388989 60860","CLASSIFICATION_TYPE":"U","PERIOD":"95.593","EPHEMERIS_TYPE":"0","TLE_LINE1":"1 46080U 20055BF  21246.50126316 -.00000901  00000-0 -41604-4 0  9990","ARG_OF_PERICENTER":"83.5499","BSTAR":"-0.00004160400000","OBJECT_NAME":"STARLINK-1568","MEAN_ANOMALY":"276.5596","NORAD_CAT_ID":"46080","ECCENTRICITY":"0.00009280","REF_FRAME":"TEME","OBJECT_ID":"2020-055BF","ELEMENT_SET_NO":"999","APOAPSIS":"547.890","GP_ID":"184047564","DECAY_DATE":null,"MEAN_MOTION_DOT":"-0.00000901","EPOCH":"2021-09-03T12:01:49.137024","REV_AT_EPOCH":"6086","LAUNCH_DATE":"2020-08-07","OBJECT_TYPE":"PAYLOAD","COUNTRY_CODE":"US"},{"MEAN_ELEMENT_THEORY":"SGP4","MEAN_MOTION_DDOT":"0.0000000000000","CENTER_NAME":"EARTH","PERIAPSIS":"546.531","PERIOD":"95.592","EPHEMERIS_TYPE":"0","CLASSIFICATION_TYPE":"U","FILE":"3108332","TLE_LINE2":"2 46081  53.0554 295.1753 0000986  89.2270 270.8831 15.06399798 60895","TLE_LINE1":"1 46081U 20055BG  21246.60078873  .00002147  00000-0  16300-3 0  9992","SITE":"AFETR","TIME_SYSTEM":"UTC","SEMIMAJOR_AXIS":"6925.349","RA_OF_ASC_NODE":"295.1753","RCS_SIZE":"LARGE","MEAN_MOTION":"15.06399798","INCLINATION":"53.0554","APOAPSIS":"547.897","GP_ID":"184048315","DECAY_DATE":null,"REV_AT_EPOCH":"6089","LAUNCH_DATE":"2020-08-07","MEAN_MOTION_DOT":"0.00002147","EPOCH":"2021-09-03T14:25:08.146272","OBJECT_TYPE":"PAYLOAD","COUNTRY_CODE":"US","ARG_OF_PERICENTER":"89.2270","BSTAR":"0.00016300000000","OBJECT_NAME":"STARLINK-1571","NORAD_CAT_ID":"46081","ECCENTRICITY":"0.00009860","REF_FRAME":"TEME","MEAN_ANOMALY":"270.8831","ELEMENT_SET_NO":"999","OBJECT_ID":"2020-055BG"},{"COUNTRY_CODE":"US","OBJECT_TYPE":"PAYLOAD","LAUNCH_DATE":"2020-08-07","REV_AT_EPOCH":"6090","EPOCH":"2021-09-03T14:56:59.958816","MEAN_MOTION_DOT":"0.00001312","DECAY_DATE":null,"GP_ID":"184048562","APOAPSIS":"547.836","OBJECT_ID":"2020-055BH","ELEMENT_SET_NO":"999","REF_FRAME":"TEME","ECCENTRICITY":"0.00008720","NORAD_CAT_ID":"46082","MEAN_ANOMALY":"270.7770","OBJECT_NAME":"STARLINK-1578","BSTAR":"0.00010696000000","ARG_OF_PERICENTER":"89.3319","TLE_LINE1":"1 46082U 20055BH  21246.62291619  .00001312  00000-0  10696-3 0  9995","CLASSIFICATION_TYPE":"U","PERIOD":"95.593","EPHEMERIS_TYPE":"0","TLE_LINE2":"2 46082  53.0534 295.0895 0000872  89.3319 270.7770 15.06394021 60906","FILE":"3108332","PERIAPSIS":"546.628","CENTER_NAME":"EARTH","MEAN_MOTION_DDOT":"0.0000000000000","MEAN_ELEMENT_THEORY":"SGP4","MEAN_MOTION":"15.06394021","INCLINATION":"53.0534","RCS_SIZE":"LARGE","RA_OF_ASC_NODE":"295.0895","SEMIMAJOR_AXIS":"6925.367","SITE":"AFETR","TIME_SYSTEM":"UTC"},{"MEAN_ELEMENT_THEORY":"SGP4","MEAN_MOTION_DDOT":"0.0000000000000","CENTER_NAME":"EARTH","PERIAPSIS":"546.555","FILE":"3108332","TLE_LINE2":"2 46083  53.0531 294.9196 0000925  80.8096 279.2998 15.06405948 60900","PERIOD":"95.592","EPHEMERIS_TYPE":"0","CLASSIFICATION_TYPE":"U","TLE_LINE1":"1 46083U 20055BJ  21246.65974416  .00002108  00000-0  16034-3 0  9998","TIME_SYSTEM":"UTC","SITE":"AFETR","SEMIMAJOR_AXIS":"6925.330","RA_OF_ASC_NODE":"294.9196","RCS_SIZE":"LARGE","INCLINATION":"53.0531","MEAN_MOTION":"15.06405948","APOAPSIS":"547.836","GP_ID":"184048815","DECAY_DATE":null,"MEAN_MOTION_DOT":"0.00002108","EPOCH":"2021-09-03T15:50:01.895424","REV_AT_EPOCH":"6090","LAUNCH_DATE":"2020-08-07","OBJECT_TYPE":"PAYLOAD","COUNTRY_CODE":"US","ARG_OF_PERICENTER":"80.8096","OBJECT_NAME":"STARLINK-1579","BSTAR":"0.00016034000000","MEAN_ANOMALY":"279.2998","NORAD_CAT_ID":"46083","ECCENTRICITY":"0.00009250","REF_FRAME":"TEME","ELEMENT_SET_NO":"999","OBJECT_ID":"2020-055BJ"},{"ARG_OF_PERICENTER":"69.3862","BSTAR":"-0.00000364280000","OBJECT_NAME":"STARLINK-1585","REF_FRAME":"TEME","ECCENTRICITY":"0.00020770","NORAD_CAT_ID":"46117","MEAN_ANOMALY":"290.7349","ELEMENT_SET_NO":"999","OBJECT_ID":"2020-057A","APOAPSIS":"548.648","DECAY_DATE":null,"GP_ID":"184049572","LAUNCH_DATE":"2020-08-18","REV_AT_EPOCH":"5795","EPOCH":"2021-09-03T16:37:49.532160","MEAN_MOTION_DOT":"-0.00000336","COUNTRY_CODE":"US","OBJECT_TYPE":"PAYLOAD","SITE":"AFETR","TIME_SYSTEM":"UTC","RA_OF_ASC_NODE":"134.7722","SEMIMAJOR_AXIS":"6925.345","RCS_SIZE":"LARGE","MEAN_MOTION":"15.06401209","INCLINATION":"53.0546","MEAN_ELEMENT_THEORY":"SGP4","CENTER_NAME":"EARTH","PERIAPSIS":"545.771","MEAN_MOTION_DDOT":"0.0000000000000","EPHEMERIS_TYPE":"0","PERIOD":"95.592","CLASSIFICATION_TYPE":"U","TLE_LINE2":"2 46117  53.0546 134.7722 0002077  69.3862 290.7349 15.06401209 57958","FILE":"3108332","TLE_LINE1":"1 46117U 20057A   21246.69293440 -.00000336  00000-0 -36428-5 0  9997"},{"MEAN_MOTION":"15.06392679","INCLINATION":"53.0555","RCS_SIZE":"LARGE","RA_OF_ASC_NODE":"155.3319","SEMIMAJOR_AXIS":"6925.371","SITE":"AFETR","TIME_SYSTEM":"UTC","TLE_LINE1":"1 46118U 20057B   21246.56945098 -.00000766  00000-0 -32528-4 0  9990","CLASSIFICATION_TYPE":"U","PERIOD":"95.593","EPHEMERIS_TYPE":"0","TLE_LINE2":"2 46118  53.0555 155.3319 0001857  65.5474 294.5708 15.06392679 58932","FILE":"3108332","PERIAPSIS":"545.950","CENTER_NAME":"EARTH","MEAN_MOTION_DDOT":"0.0000000000000","MEAN_ELEMENT_THEORY":"SGP4","OBJECT_ID":"2020-057B","ELEMENT_SET_NO":"999","REF_FRAME":"TEME","ECCENTRICITY":"0.00018570","NORAD_CAT_ID":"46118","MEAN_ANOMALY":"294.5708","OBJECT_NAME":"STARLINK-1588","BSTAR":"-0.00003252800000","ARG_OF_PERICENTER":"65.5474","COUNTRY_CODE":"US","OBJECT_TYPE":"PAYLOAD","REV_AT_EPOCH":"5893","LAUNCH_DATE":"2020-08-18","EPOCH":"2021-09-03T13:40:00.564672","MEAN_MOTION_DOT":"-0.00000766","DECAY_DATE":null,"GP_ID":"184048066","APOAPSIS":"548.522"}];
